     2.100          NAVIGATION                              RINEX VERSION / TYPE
fic2rin                                 02/02/2018 00:17:22 PGM / RUN BY / DATE
                                                            END OF HEADER
30 18  2  1  6  0  0.0  .107559375465D-03 -.341060513165D-11  .000000000000D+00
     .750000000000D+02 -.417812500000D+02  .500485132929D-08  .133489329930D+01
    -.213645398617D-05  .306960765738D-02  .889413058758D-05  .515357175255D+04
     .367200000000D+06  .223517417908D-07  .257143509158D+01  .558793544769D-07
     .945340753968D+00  .199718750000D+03 -.311321787404D+01 -.823391440416D-08
    -.710386733316D-09  .100000000000D+01  .198600000000D+04  .000000000000D+00
     .240000000000D+01  .000000000000D+00  .372529029846D-08  .750000000000D+02
     .360006000000D+06  .400000000000D+01
31 18  2  1  6  0  0.0  .144760124385D-03 -.261479726760D-11  .000000000000D+00
     .530000000000D+02 -.417187500000D+02  .452233123039D-08  .972456440886D+00
    -.206381082535D-05  .882729771547D-02  .837817788124D-05  .515359755707D+04
     .367200000000D+06  .106170773506D-06  .254816994841D+01  .124797224998D-06
     .964363158214D+00  .217812500000D+03 -.161308359186D+00 -.802962018020D-08
    -.629669085388D-09  .100000000000D+01  .198600000000D+04  .000000000000D+00
     .240000000000D+01  .000000000000D+00 -.135041773319D-07  .530000000000D+02
     .360006000000D+06  .400000000000D+01
32 18  2  1  6  0  0.0 -.532931182534D-03  .341060513165D-12  .000000000000D+00
     .540000000000D+02  .361250000000D+02  .497627871055D-08 -.143347341506D+01
     .188313424587D-05  .163193466142D-02  .570528209209D-05  .515362085724D+04
     .367200000000D+06  .167638063431D-07  .146211712138D+01 -.707805156708D-07
     .956876458431D+00  .270500000000D+03 -.269492002713D+01 -.827034449304D-08
     .399659504565D-09  .100000000000D+01  .198600000000D+04  .000000000000D+00
     .240000000000D+01  .000000000000D+00  .465661287308D-09  .540000000000D+02
     .360006000000D+06  .400000000000D+01
16 18  2  1  5 59 44.0  .330912880599D-04 -.682121026330D-12  .000000000000D+00
     .500000000000D+01  .114187500000D+03  .362050795155D-08 -.132059894534D+01
     .580772757530D-05  .979570252821D-02  .113919377327D-04  .515358168793D+04
     .367184000000D+06  .154599547386D-06 -.263879366529D+01 -.126659870148D-06
     .988330063183D+00  .170500000000D+03  .461317554105D+00 -.753031366779D-08
     .186436337250D-09  .100000000000D+01  .198600000000D+04  .000000000000D+00
     .240000000000D+01  .000000000000D+00 -.107102096081D-07  .500000000000D+01
     .361236000000D+06  .400000000000D+01
25 18  2  1  5 59 44.0 -.531591940671D-03 -.613908923697D-11  .000000000000D+00
     .580000000000D+02  .901875000000D+02  .399659504565D-08  .150137916110D+00
     .473670661449D-05  .708790274803D-02  .123642385006D-04  .515369609070D+04
     .367184000000D+06  .558793544769D-08 -.271597598552D+01  .126659870148D-06
     .975639635055D+00  .153125000000D+03  .807035830682D+00 -.778746723641D-08
     .167864135072D-10  .100000000000D+01  .198600000000D+04  .000000000000D+00
     .240000000000D+01  .000000000000D+00  .558793544769D-08  .580000000000D+02
     .361896000000D+06  .400000000000D+01
16 18  2  1  7 59 44.0  .330861657858D-04 -.682121026330D-12  .000000000000D+00
     .600000000000D+01  .100250000000D+03  .359372112148D-08 -.270231826572D+00
     .540167093277D-05  .979595084209D-02  .116508454084D-04  .515358386040D+04
     .374384000000D+06  .102445483208D-06 -.263884810486D+01  .782310962677D-07
     .988330386488D+00  .169562500000D+03  .461179071354D+00 -.770710674622D-08
     .120004998690D-09  .100000000000D+01  .198600000000D+04  .000000000000D+00
     .240000000000D+01  .000000000000D+00 -.107102096081D-07  .600000000000D+01
     .367206000000D+06  .400000000000D+01
25 18  2  1  7 59 44.0 -.531636178493D-03 -.613908923697D-11  .000000000000D+00
     .590000000000D+02  .973125000000D+02  .377087135764D-08  .119991144271D+01
     .502727925777D-05  .709150137845D-02  .136736780405D-04  .515370469284D+04
     .374384000000D+06 -.968575477600D-07 -.271603167003D+01  .782310962677D-07
     .975639500467D+00  .121750000000D+03  .807421966446D+00 -.775782314447D-08
    -.339299847486D-10  .100000000000D+01  .198600000000D+04  .000000000000D+00
     .240000000000D+01  .000000000000D+00  .558793544769D-08  .590000000000D+02
     .367206000000D+06  .400000000000D+01
 1 18  2  1  8  0  0.0 -.264584086835D-04 -.193267624127D-11  .000000000000D+00
     .400000000000D+01 -.133437500000D+03  .442447001122D-08  .291157715600D+01
    -.696815550327D-05  .730871735141D-02  .517256557941D-05  .515367849350D+04
     .374400000000D+06 -.111758708954D-06 -.619182623990D+00 -.113621354103D-06
     .970170836195D+00  .284187500000D+03  .615274062371D+00 -.809712299196D-08
    -.403945397376D-09  .100000000000D+01  .198600000000D+04  .000000000000D+00
     .240000000000D+01  .000000000000D+00  .558793544769D-08  .400000000000D+01
     .367206000000D+06  .400000000000D+01
 2 18  2  1  8  0  0.0  .212522223592D-03 -.104591890704D-10  .000000000000D+00
     .790000000000D+02 -.156187500000D+03  .497699302602D-08 -.297931926001D+01
    -.789202749729D-05  .177364413394D-01  .374391674995D-05  .515367807388D+04
     .374400000000D+06  .316649675369D-06 -.677861972449D+00 -.124797224998D-06
     .949151902798D+00  .297093750000D+03 -.190214492230D+01 -.835106214097D-08
    -.431089385175D-09  .100000000000D+01  .198600000000D+04  .000000000000D+00
     .240000000000D+01  .000000000000D+00 -.204890966415D-07  .790000000000D+02
     .367206000000D+06  .400000000000D+01
 3 18  2  1  8  0  0.0  .632368028164D-06  .716227077646D-11  .000000000000D+00
     .510000000000D+02 -.339687500000D+02  .421231831711D-08  .195095168764D+01
    -.184029340744D-05  .119201629423D-02  .131074339151D-04  .515357379150D+04
     .374400000000D+06 -.260770320892D-07  .423130536811D+00 -.558793544769D-08
     .961018402297D+00  .125468750000D+03  .520564042256D+00 -.777032366517D-08
     .280011663610D-09  .100000000000D+01  .198600000000D+04  .000000000000D+00
     .240000000000D+01  .000000000000D+00  .232830643654D-08  .510000000000D+02
     .367206000000D+06  .400000000000D+01
 4 18  2  1  8  0  0.0  .355462543666D-04  .227373675443D-11  .000000000000D+00
     .390000000000D+02  .887500000000D+02  .510771275674D-08  .409058739510D-01
     .473484396935D-05  .947624200489D-02  .122357159853D-04  .515367779541D+04
     .374400000000D+06 -.149011611938D-07 -.269163900763D+01  .149011611938D-06
     .980447952736D+00  .156187500000D+03  .892961285205D+00 -.777425240025D-08
     .428589281035D-10  .100000000000D+01  .198600000000D+04  .000000000000D+00
     .240000000000D+01  .630000000000D+02 -.195577740669D-07  .390000000000D+02
     .367206000000D+06  .400000000000D+01
 5 18  2  1  8  0  0.0 -.154450535774D-04  .102318153949D-11  .000000000000D+00
     .660000000000D+02 -.530312500000D+02  .452090259945D-08 -.405498130030D+00
    -.276416540146D-05  .528944004327D-02  .139977782965D-04  .515364296150D+04
     .374400000000D+06  .204890966415D-07  .402894539615D+00  .102445483208D-06
     .947937486224D+00  .100625000000D+03  .627171518680D+00 -.801211945122D-08
     .284297556420D-09  .100000000000D+01  .198600000000D+04  .000000000000D+00
     .240000000000D+01  .000000000000D+00 -.107102096081D-07  .660000000000D+02
     .367206000000D+06  .400000000000D+01
 6 18  2  1  8  0  0.0  .414825044572D-03 -.113686837722D-12  .000000000000D+00
     .800000000000D+02 -.147937500000D+03  .453126017375D-08 -.312146902459D+01
    -.747479498386D-05  .105692376383D-02  .520609319210D-05  .515356878662D+04
     .374400000000D+06  .428408384323D-07 -.627516777587D+00  .102445483208D-06
     .969899140124D+00  .283656250000D+03 -.124360101862D+01 -.831748931396D-08
    -.451804533758D-09  .100000000000D+01  .198600000000D+04  .000000000000D+00
     .240000000000D+01  .000000000000D+00  .465661287308D-08  .800000000000D+02
     .367206000000D+06  .400000000000D+01
 7 18  2  1  8  0  0.0  .243235845119D-03 -.557065504836D-11  .000000000000D+00
     .990000000000D+02 -.445937500000D+02  .465733685392D-08  .223027458894D+01
    -.236742198467D-05  .111525342800D-01  .866129994392D-05  .515369057846D+04
     .374400000000D+06 -.223517417908D-06  .253610346947D+01 -.912696123123D-07
     .959658701865D+00  .213375000000D+03 -.254579233934D+01 -.799747598412D-08
    -.637526555540D-09  .100000000000D+01  .198600000000D+04  .000000000000D+00
     .340000000000D+01  .000000000000D+00 -.111758708954D-07  .990000000000D+02
     .367206000000D+06  .400000000000D+01
 8 18  2  1  8  0  0.0 -.896328128874D-04 -.125055521494D-11  .000000000000D+00
     .400000000000D+01  .847500000000D+02  .470519599030D-08 -.764142373323D+00
     .425428152084D-05  .328449218068D-02  .200979411602D-05  .515375442696D+04
     .374400000000D+06  .186264514923D-08 -.168397447929D+01 -.111758708954D-07
     .968275147449D+00  .343875000000D+03 -.574882309036D+00 -.851428322550D-08
     .343228582562D-09  .100000000000D+01  .198600000000D+04  .000000000000D+00
     .240000000000D+01  .000000000000D+00  .558793544769D-08  .400000000000D+01
     .367206000000D+06  .400000000000D+01
 9 18  2  1  8  0  0.0  .497764907777D-03  .295585778076D-11  .000000000000D+00
     .100000000000D+03  .393437500000D+02  .518985903560D-08 -.942256202902D+00
     .199675559998D-05  .116623879876D-02  .533089041710D-05  .515367942238D+04
     .374400000000D+06  .149011611938D-07  .145764314631D+01  .465661287308D-07
     .952464986538D+00  .272718750000D+03  .174271290916D+01 -.840892169391D-08
     .410374236591D-09  .100000000000D+01  .198600000000D+04  .000000000000D+00
     .240000000000D+01  .000000000000D+00  .139698386192D-08  .100000000000D+03
     .367206000000D+06  .400000000000D+01
